start=new Date('2022-06-20T00:00:00.000Z').valueOf();
sats=[{"SITE":"AFETR","OBJECT_ID":"2022-005AV","SEMIMAJOR_AXIS":"6917.845","MEAN_MOTION":"15.08851698","NORAD_CAT_ID":"51147","APOAPSIS":"540.727","PERIAPSIS":"538.693","OBJECT_TYPE":"PAYLOAD","EPOCH":"2022-06-19T18:35:39.376320","REV_AT_EPOCH":"2344","PERIOD":"95.437","DECAY_DATE":null,"INCLINATION":"53.2167","REF_FRAME":"TEME","GP_ID":"206448489","BSTAR":"0.00038264000000","MEAN_MOTION_DOT":"0.00005809","MEAN_ANOMALY":"301.2959","EPHEMERIS_TYPE":"0","RCS_SIZE":"LARGE","TLE_LINE2":"2 51147  53.2167 289.5346 0001470  58.8177 301.2959 15.08851698 23442","CENTER_NAME":"EARTH","RA_OF_ASC_NODE":"289.5346","ELEMENT_SET_NO":"999","ARG_OF_PERICENTER":"58.8177","TLE_LINE1":"1 51147U 22005AV  22170.77476130  .00005809  00000-0  38264-3 0  9992","FILE":"3497669","MEAN_ELEMENT_THEORY":"SGP4","CLASSIFICATION_TYPE":"U","MEAN_MOTION_DDOT":"0.0000000000000","LAUNCH_DATE":"2022-01-19","ECCENTRICITY":"0.00014700","OBJECT_NAME":"STARLINK-3352","TIME_SYSTEM":"UTC","COUNTRY_CODE":"US"},{"SITE":"AFETR","OBJECT_ID":"2022-005AW","SEMIMAJOR_AXIS":"6917.891","MEAN_MOTION":"15.08836655","NORAD_CAT_ID":"51148","APOAPSIS":"541.109","PERIAPSIS":"538.402","EPOCH":"2022-06-19T19:55:09.815808","OBJECT_TYPE":"PAYLOAD","REV_AT_EPOCH":"2345","PERIOD":"95.438","DECAY_DATE":null,"INCLINATION":"53.2165","REF_FRAME":"TEME","GP_ID":"206449741","BSTAR":"0.00028830000000","MEAN_MOTION_DOT":"0.00004303","MEAN_ANOMALY":"319.5275","RCS_SIZE":"LARGE","EPHEMERIS_TYPE":"0","CENTER_NAME":"EARTH","TLE_LINE2":"2 51148  53.2165 289.2805 0001957  40.5863 319.5275 15.08836655 23458","RA_OF_ASC_NODE":"289.2805","ELEMENT_SET_NO":"999","ARG_OF_PERICENTER":"40.5863","TLE_LINE1":"1 51148U 22005AW  22170.82997472  .00004303  00000-0  28830-3 0  9992","FILE":"3497669","MEAN_ELEMENT_THEORY":"SGP4","CLASSIFICATION_TYPE":"U","MEAN_MOTION_DDOT":"0.0000000000000","LAUNCH_DATE":"2022-01-19","ECCENTRICITY":"0.00019570","OBJECT_NAME":"STARLINK-3359","TIME_SYSTEM":"UTC","COUNTRY_CODE":"US"},{"ELEMENT_SET_NO":"999","RA_OF_ASC_NODE":"289.8884","MEAN_ELEMENT_THEORY":"SGP4","ARG_OF_PERICENTER":"31.6528","TLE_LINE1":"1 51149U 22005AX  22170.69381573  .00002589  00000-0  18079-3 0  9995","FILE":"3497669","LAUNCH_DATE":"2022-01-19","ECCENTRICITY":"0.00020060","CLASSIFICATION_TYPE":"U","MEAN_MOTION_DDOT":"0.0000000000000","COUNTRY_CODE":"US","OBJECT_NAME":"STARLINK-3360","TIME_SYSTEM":"UTC","APOAPSIS":"541.167","NORAD_CAT_ID":"51149","PERIAPSIS":"538.392","SITE":"AFETR","OBJECT_ID":"2022-005AX","SEMIMAJOR_AXIS":"6917.915","MEAN_MOTION":"15.08828768","REV_AT_EPOCH":"2343","OBJECT_TYPE":"PAYLOAD","EPOCH":"2022-06-19T16:39:05.679072","INCLINATION":"53.2167","PERIOD":"95.438","DECAY_DATE":null,"MEAN_MOTION_DOT":"0.00002589","MEAN_ANOMALY":"328.4584","RCS_SIZE":"LARGE","EPHEMERIS_TYPE":"0","TLE_LINE2":"2 51149  53.2167 289.8884 0002006  31.6528 328.4584 15.08828768 23435","CENTER_NAME":"EARTH","REF_FRAME":"TEME","GP_ID":"206449988","BSTAR":"0.00018079000000"},{"EPOCH":"2022-06-19T17:12:11.760192","OBJECT_TYPE":"PAYLOAD","REV_AT_EPOCH":"2358","SITE":"AFETR","SEMIMAJOR_AXIS":"6917.861","OBJECT_ID":"2022-005AY","MEAN_MOTION":"15.08846336","NORAD_CAT_ID":"51150","APOAPSIS":"541.048","PERIAPSIS":"538.404","GP_ID":"206448741","REF_FRAME":"TEME","BSTAR":"0.00021312000000","MEAN_MOTION_DOT":"0.00003106","MEAN_ANOMALY":"304.5988","EPHEMERIS_TYPE":"0","RCS_SIZE":"LARGE","TLE_LINE2":"2 51150  53.2182 279.7809 0001911  55.5184 304.5988 15.08846336 23586","CENTER_NAME":"EARTH","PERIOD":"95.437","DECAY_DATE":null,"INCLINATION":"53.2182","TLE_LINE1":"1 51150U 22005AY  22170.71680278  .00003106  00000-0  21312-3 0  9994","ARG_OF_PERICENTER":"55.5184","FILE":"3497669","MEAN_ELEMENT_THEORY":"SGP4","RA_OF_ASC_NODE":"279.7809","ELEMENT_SET_NO":"999","OBJECT_NAME":"STARLINK-3357","TIME_SYSTEM":"UTC","COUNTRY_CODE":"US","CLASSIFICATION_TYPE":"U","MEAN_MOTION_DDOT":"0.0000000000000","LAUNCH_DATE":"2022-01-19","ECCENTRICITY":"0.00019110"},{"BSTAR":"0.00006891200000","GP_ID":"206448990","REF_FRAME":"TEME","CENTER_NAME":"EARTH","TLE_LINE2":"2 51151  53.2162 289.3211 0001793  48.5229 311.5917 15.08829932 23458","RCS_SIZE":"LARGE","EPHEMERIS_TYPE":"0","MEAN_MOTION_DOT":"0.00000809","MEAN_ANOMALY":"311.5917","DECAY_DATE":null,"PERIOD":"95.438","INCLINATION":"53.2162","OBJECT_TYPE":"PAYLOAD","EPOCH":"2022-06-19T19:39:15.344640","REV_AT_EPOCH":"2345","MEAN_MOTION":"15.08829932","OBJECT_ID":"2022-005AZ","SEMIMAJOR_AXIS":"6917.911","SITE":"AFETR","PERIAPSIS":"538.536","APOAPSIS":"541.017","NORAD_CAT_ID":"51151","TIME_SYSTEM":"UTC","OBJECT_NAME":"STARLINK-3361","COUNTRY_CODE":"US","MEAN_MOTION_DDOT":"0.0000000000000","CLASSIFICATION_TYPE":"U","LAUNCH_DATE":"2022-01-19","ECCENTRICITY":"0.00017930","FILE":"3497669","TLE_LINE1":"1 51151U 22005AZ  22170.81892760  .00000809  00000-0  68912-4 0  9992","ARG_OF_PERICENTER":"48.5229","MEAN_ELEMENT_THEORY":"SGP4","RA_OF_ASC_NODE":"289.3211","ELEMENT_SET_NO":"999"},{"REV_AT_EPOCH":"2345","EPOCH":"2022-06-19T19:44:33.617184","OBJECT_TYPE":"PAYLOAD","NORAD_CAT_ID":"51152","APOAPSIS":"541.018","PERIAPSIS":"538.536","SITE":"AFETR","OBJECT_ID":"2022-005BA","SEMIMAJOR_AXIS":"6917.912","MEAN_MOTION":"15.08829705","MEAN_MOTION_DOT":"0.00001757","MEAN_ANOMALY":"313.8695","EPHEMERIS_TYPE":"0","RCS_SIZE":"LARGE","CENTER_NAME":"EARTH","TLE_LINE2":"2 51152  53.2172 289.3081 0001794  46.2446 313.8695 15.08829705 23458","GP_ID":"206449241","REF_FRAME":"TEME","BSTAR":"0.00012851000000","INCLINATION":"53.2172","PERIOD":"95.438","DECAY_DATE":null,"MEAN_ELEMENT_THEORY":"SGP4","ARG_OF_PERICENTER":"46.2446","TLE_LINE1":"1 51152U 22005BA  22170.82261131  .00001757  00000-0  12851-3 0  9999","FILE":"3497669","ELEMENT_SET_NO":"999","RA_OF_ASC_NODE":"289.3081","COUNTRY_CODE":"US","OBJECT_NAME":"STARLINK-3364","TIME_SYSTEM":"UTC","LAUNCH_DATE":"2022-01-19","ECCENTRICITY":"0.00017940","CLASSIFICATION_TYPE":"U","MEAN_MOTION_DDOT":"0.0000000000000"},{"OBJECT_TYPE":"PAYLOAD","EPOCH":"2022-06-19T15:18:16.004736","REV_AT_EPOCH":"2165","SITE":"AFETR","SEMIMAJOR_AXIS":"6917.882","OBJECT_ID":"2022-010E","MEAN_MOTION":"15.08839348","NORAD_CAT_ID":"51460","APOAPSIS":"541.088","PERIAPSIS":"538.407","GP_ID":"206449255","REF_FRAME":"TEME","BSTAR":"0.00014896000000","MEAN_MOTION_DOT":"0.00002083","MEAN_ANOMALY":"315.3738","EPHEMERIS_TYPE":"0","RCS_SIZE":"LARGE","TLE_LINE2":"2 51460  53.2182 260.1337 0001938  44.7411 315.3738 15.08839348 21656","CENTER_NAME":"EARTH","PERIOD":"95.438","DECAY_DATE":null,"INCLINATION":"53.2182","TLE_LINE1":"1 51460U 22010E   22170.63768524  .00002083  00000-0  14896-3 0  9998","ARG_OF_PERICENTER":"44.7411","FILE":"3497669","MEAN_ELEMENT_THEORY":"SGP4","RA_OF_ASC_NODE":"260.1337","ELEMENT_SET_NO":"999","OBJECT_NAME":"STARLINK-3167","TIME_SYSTEM":"UTC","COUNTRY_CODE":"US","CLASSIFICATION_TYPE":"U","MEAN_MOTION_DDOT":"0.0000000000000","LAUNCH_DATE":"2022-02-03","ECCENTRICITY":"0.00019380"},{"MEAN_ELEMENT_THEORY":"SGP4","ARG_OF_PERICENTER":"46.5149","TLE_LINE1":"1 51461U 22010F   22170.52360353  .00002039  00000-0  14618-3 0  9998","FILE":"3497096","ELEMENT_SET_NO":"999","RA_OF_ASC_NODE":"260.6515","COUNTRY_CODE":"US","TIME_SYSTEM":"UTC","OBJECT_NAME":"STARLINK-3181","LAUNCH_DATE":"2022-02-03","ECCENTRICITY":"0.00018390","MEAN_MOTION_DDOT":"0.0000000000000","CLASSIFICATION_TYPE":"U","REV_AT_EPOCH":"2213","OBJECT_TYPE":"PAYLOAD","EPOCH":"2022-06-19T12:33:59.344992","PERIAPSIS":"538.475","NORAD_CAT_ID":"51461","APOAPSIS":"541.019","OBJECT_ID":"2022-010F","SEMIMAJOR_AXIS":"6917.882","MEAN_MOTION":"15.08839504","SITE":"AFETR","EPHEMERIS_TYPE":"0","RCS_SIZE":"LARGE","CENTER_NAME":"EARTH","TLE_LINE2":"2 51461  53.2190 260.6515 0001839  46.5149 313.5996 15.08839504 22131","MEAN_MOTION_DOT":"0.00002039","MEAN_ANOMALY":"313.5996","GP_ID":"206421544","REF_FRAME":"TEME","BSTAR":"0.00014618000000","INCLINATION":"53.2190","DECAY_DATE":null,"PERIOD":"95.438"},{"COUNTRY_CODE":"US","OBJECT_NAME":"STARLINK-3166","TIME_SYSTEM":"UTC","LAUNCH_DATE":"2022-02-03","ECCENTRICITY":"0.00023810","CLASSIFICATION_TYPE":"U","MEAN_MOTION_DDOT":"0.0000000000000","MEAN_ELEMENT_THEORY":"SGP4","TLE_LINE1":"1 51462U 22010G   22170.98361900 -.00000288  00000-0  00000+0 0  9999","ARG_OF_PERICENTER":"35.0654","FILE":"3497638","ELEMENT_SET_NO":"999","RA_OF_ASC_NODE":"258.5909","MEAN_MOTION_DOT":"-0.00000288","MEAN_ANOMALY":"325.0975","RCS_SIZE":"LARGE","EPHEMERIS_TYPE":"0","CENTER_NAME":"EARTH","TLE_LINE2":"2 51462  53.2180 258.5909 0002381  35.0654 325.0975 15.08842760 22178","REF_FRAME":"TEME","GP_ID":"206425569","BSTAR":"0.00000000000000","INCLINATION":"53.2180","PERIOD":"95.437","DECAY_DATE":null,"REV_AT_EPOCH":"2217","EPOCH":"2022-06-19T23:36:24.681600","OBJECT_TYPE":"PAYLOAD","APOAPSIS":"541.384","NORAD_CAT_ID":"51462","PERIAPSIS":"538.090","SITE":"AFETR","OBJECT_ID":"2022-010G","SEMIMAJOR_AXIS":"6917.872","MEAN_MOTION":"15.08842760"},{"ELEMENT_SET_NO":"999","RA_OF_ASC_NODE":"259.5855","MEAN_ELEMENT_THEORY":"SGP4","FILE":"3497669","TLE_LINE1":"1 51463U 22010H   22170.75913615 -.00001572  00000-0 -80713-4 0  9993","ARG_OF_PERICENTER":"45.0150","ECCENTRICITY":"0.00020160","LAUNCH_DATE":"2022-02-03","MEAN_MOTION_DDOT":"0.0000000000000","CLASSIFICATION_TYPE":"U","COUNTRY_CODE":"US","TIME_SYSTEM":"UTC","OBJECT_NAME":"STARLINK-3419","PERIAPSIS":"538.364","NORAD_CAT_ID":"51463","APOAPSIS":"541.153","MEAN_MOTION":"15.08835775","OBJECT_ID":"2022-010H","SEMIMAJOR_AXIS":"6917.893","SITE":"AFETR","REV_AT_EPOCH":"2136","EPOCH":"2022-06-19T18:13:09.363360","OBJECT_TYPE":"PAYLOAD","INCLINATION":"53.2201","DECAY_DATE":null,"PERIOD":"95.438","TLE_LINE2":"2 51463  53.2201 259.5855 0002016  45.0150 315.1005 15.08835775 21363","CENTER_NAME":"EARTH","EPHEMERIS_TYPE":"0","RCS_SIZE":"LARGE","MEAN_ANOMALY":"315.1005","MEAN_MOTION_DOT":"-0.00001572","BSTAR":"-0.00008071300000","GP_ID":"206448504","REF_FRAME":"TEME"}];
